EARTHCARE               
1 59908U 24101A   24197.86843165  .00016891  00000+0  25366-3 0  9992
2 59908  96.9821 324.9396 0003566  22.3173 337.8237 15.54943626  7445
